[{"OBJECT_NAME":"STARLINK-31919","OBJECT_ID":"2024-098Y","EPOCH":"2026-03-09T22:30:22.344768","MEAN_MOTION":15.27587887,"ECCENTRICITY":0.00010278,"INCLINATION":43.0025,"RA_OF_ASC_NODE":276.6299,"ARG_OF_PERICENTER":276.9645,"MEAN_ANOMALY":83.109,"EPHEMERIS_TYPE":0,"CLASSIFICATION_TYPE":"U","NORAD_CAT_ID":59880,"ELEMENT_SET_NO":999,"REV_AT_EPOCH":10188,"BSTAR":0.00014297853,"MEAN_MOTION_DOT":3.675e-5,"MEAN_MOTION_DDOT":0},{"OBJECT_NAME":"FLOCK 4G-2","OBJECT_ID":"2025-009BE","EPOCH":"2026-03-09T15:53:23.273952","MEAN_MOTION":15.2767526,"ECCENTRICITY":0.00031811,"INCLINATION":97.4044,"RA_OF_ASC_NODE":151.2221,"ARG_OF_PERICENTER":329.2677,"MEAN_ANOMALY":30.8376,"EPHEMERIS_TYPE":0,"CLASSIFICATION_TYPE":"U","NORAD_CAT_ID":62661,"ELEMENT_SET_NO":999,"REV_AT_EPOCH":12132,"BSTAR":0.00051068481,"MEAN_MOTION_DOT":0.00013752,"MEAN_MOTION_DDOT":0}]
